0 FENGYUN 1C DEB
1 30413U 99025AEC 13281.45396015  .00002624  00000-0  16821-2 0  1631
2 30413 102.0767 001.2690 0074292 238.2912 186.8996 14.03356592343482
0 FENGYUN 1C DEB
1 30413U 99025AEC 13282.74993514  .00003143  00000-0  20053-2 0  1641
2 30413 102.0770 002.9840 0074448 235.2049 254.1765 14.03368153343661
0 FENGYUN 1C DEB
1 30413U 99025AEC 13287.44150583  .00002925  00000-0  18675-2 0  1660
2 30413 102.0781 009.1936 0074895 224.0556 196.3370 14.03392877344326
0 FENGYUN 1C DEB
1 30413U 99025AEC 13289.80725770  .00003108  00000-0  19807-2 0  1671
2 30413 102.0780 012.3253 0075073 218.5056 268.3937 14.03409940344650
0 FENGYUN 1C DEB
1 30413U 99025AEC 13292.14676557  .00003053  00000-0  19459-2 0  1683
2 30413 102.0772 015.4225 0075257 213.0371 207.9763 14.03422757344981
0 FENGYUN 1C DEB
1 30413U 99025AEC 13294.20588642  .00003596  00000-0  22834-2 0  1693
2 30413 102.0765 018.1478 0075389 208.2112 171.1007 14.03434599345271
